CUTE-1 (CO-55)          
1 27844U 03031E   26192.48336144  .00000156  00000+0  86496-4 0  9993
2 27844  98.6741 200.7369 0010751 112.2064 248.0256 14.24350058195137
CUBESAT XI-IV (CO-57)   
1 27848U 03031J   26191.99204951  .00000130  00000+0  76313-4 0  9991
2 27848  98.6772 199.9452 0010410 130.5633 229.6453 14.23633076194769
CUBESAT XI-V            
1 28895U 05043F   26192.38715502  .00000804  00000+0  13420-3 0  9999
2 28895  98.3011 348.5214 0015131 126.3821 233.8784 14.72696464105311
CUTE-1.7+APD II (CO-65) 
1 32785U 08021C   26192.50930786  .00003123  00000+0  19801-3 0  9994
2 32785  97.8286 174.4391 0007328 314.4925  45.5703 15.09678405988862
CANX-2                  
1 32790U 08021H   26192.41157699  .00002275  00000+0  16141-3 0  9995
2 32790  97.8654 172.6643 0009120 331.9757  28.0977 15.05791671988457
SEEDS II (CO-66)        
1 32791U 08021J   26192.47991517  .00011050  00000+0  34281-3 0  9993
2 32791  97.7523 191.5526 0002674 165.3610 194.7710 15.33583127991014
SWISSCUBE               
1 35932U 09051B   26192.18281227  .00000531  00000+0  11450-3 0  9990
2 35932  98.4014 100.4874 0007656 129.8333 230.3542 14.62526269892660
BEESAT-1                
1 35933U 09051C   26192.20478775  .00000437  00000+0  97507-4 0  9993
2 35933  98.3941 100.0947 0005911 140.2385 219.9249 14.61758109892691
ITUPSAT1                
1 35935U 09051E   26191.18906354  .00000448  00000+0  10253-3 0  9994
2 35935  98.4025  98.2308 0007739 157.5053 202.6487 14.60474362892091
TISAT 1                 
1 36799U 10035E   26192.28125931  .00012730  00000+0  40645-3 0  9998
2 36799  98.0705 140.9857 0004200 128.1022 232.0597 15.32633143871398
STRAND-1                
1 39090U 13009E   26192.49314169  .00000156  00000+0  66857-4 0  9998
2 39090  98.3931  12.1305 0009210 151.3099 208.8597 14.37177517700557
BRITE-AUSTRIA           
1 39091U 13009F   26192.44690825  .00000095  00000+0  46791-4 0  9997
2 39091  98.4005  11.2835 0010542 161.3520 198.8054 14.36551539700532
NEE-01 PEGASO           
1 39151U 13018B   26190.63966526  .00001233  00000+0  12199-3 0  9996
2 39151  98.1250 335.5366 0013875  90.6498 269.6310 14.93776228714050
POPACS 2                
1 39269U 13055E   26190.24884197  .00014766 -88151-6  24179-3 0  9994
2 39269  80.9909 118.9327 0415457 122.9592 241.2292 14.91853625666502
POPACS 3                
1 39270U 13055F   26192.37105322  .00008935  00000+0  21180-3 0  9997
2 39270  80.9987 202.9550 0549245 356.3437   3.3807 14.56594959642074
ZACUBE-1 (TSHEPISOSAT)  
1 39417U 13066B   26192.20230991  .00001491  00000+0  11848-3 0  9995
2 39417  97.8013 154.6584 0043797 168.0001 192.2277 15.01317932684339
WNISAT-1                
1 39423U 13066H   26192.36723838  .00000731  00000+0  14072-3 0  9994
2 39423  97.7229 339.8108 0163641 155.3105 205.6042 14.58114697670257
TRITON-1                
1 39427U 13066M   26192.53885418  .00001221  00000+0  15091-3 0  9997
2 39427  97.8228 101.7898 0090280 153.9237 206.6565 14.81788422677696
GOMX-1                  
1 39430U 13066Q   26192.49442670  .00000998  00000+0  15600-3 0  9991
2 39430  97.6477  31.4235 0128650   0.1107   0.0106 14.69537490673483
CUBEBUG-2 (LO-74)       
1 39440U 13066AA  26192.31050647  .00001843  00000+0  17366-3 0  9993
2 39440  97.8909 141.3951 0056043 308.5622  51.0583 14.93951590680598
NEE-02 KRYSAOR          
1 39441U 13066AB  26192.30441638  .00001579  00000+0  17712-3 0  9998
2 39441  97.8893 131.3492 0065753 352.1228   7.8949 14.86729301679784
FUNCUBE-1 (AO-73)       
1 39444U 13066AE  26191.98474830  .00004079  00000+0  25254-3 0  9992
2 39444  97.8286 163.9335 0037927 121.2536 239.2417 15.09785992683251
UWE-3                   
1 39446U 13066AG  26192.34365257  .00001839  00000+0  16088-3 0  9993
2 39446  97.8697 148.5848 0047530 237.9674 121.6926 14.97184048681197
BRITE-CA1 (TORONTO)     
1 40020U 14033L   26190.18755172  .00000733  00000+0  11766-3 0  9997
2 40020  97.9764 318.7133 0078005 205.5751 154.1590 14.72715027645456
DUCHIFAT-1              
1 40021U 14033M   26192.41130691  .00099078  00000+0  80962-3 0  9993
2 40021  98.0442 255.0791 0002055 250.9446 109.1592 15.70259500659547
NANOSATC-BR1            
1 40024U 14033Q   26192.04806789  .00011183  00000+0  36184-3 0  9991
2 40024  98.0719 226.5623 0005307 107.0406 253.1416 15.32238644657632
QB50P1                  
1 40025U 14033R   26192.53242477  .00004864  00000+0  23840-3 0  9997
2 40025  98.0966 205.3912 0010169 135.6881 224.5167 15.18630137656720
QB50P2                  
1 40032U 14033Y   26192.53273845  .00004358  00000+0  23405-3 0  9993
2 40032  98.0759 190.9345 0009366  94.0976 266.1326 15.15477038656351
PERSEUS-M2              
1 40037U 14033AD  26192.48398192  .00001481  00000+0  13886-3 0  9991
2 40037  97.9965 143.5206 0010647 212.0597 147.9977 14.95582119654415
PERSEUS-M1              
1 40039U 14033AF  26192.32120053  .00001269  00000+0  11941-3 0  9999
2 40039  97.9650 136.8512 0010702 210.3117 149.7485 14.95706009654245
